start=new Date('2022-02-01T00:00:00.000Z').valueOf();
sats=[{"MEAN_MOTION_DDOT":"0.0000000000000","RA_OF_ASC_NODE":"77.2842","RCS_SIZE":"LARGE","GP_ID":"195022830","DECAY_DATE":null,"PERIOD":"91.533","TIME_SYSTEM":"UTC","REV_AT_EPOCH":"391","TLE_LINE1":"1 50823U 22001W   22031.50180832 -.00001472  00000-0 -60390-5 0  9997","EPHEMERIS_TYPE":"0","PERIAPSIS":"347.370","LAUNCH_DATE":"2022-01-06","SEMIMAJOR_AXIS":"6727.886","APOAPSIS":"352.132","BSTAR":"-0.00000603900000","OBJECT_ID":"2022-001W","ARG_OF_PERICENTER":"39.5615","REF_FRAME":"TEME","TLE_LINE2":"2 50823  53.2130  77.2842 0003539  39.5615 320.5663 15.73203067  3915","SITE":"AFETR","MEAN_ANOMALY":"320.5663","FILE":"3288447","CLASSIFICATION_TYPE":"U","ELEMENT_SET_NO":"999","MEAN_MOTION_DOT":"-0.00001472","INCLINATION":"53.2130","MEAN_ELEMENT_THEORY":"SGP4","EPOCH":"2022-01-31T12:02:36.238848","ECCENTRICITY":"0.00035390","MEAN_MOTION":"15.73203067","NORAD_CAT_ID":"50823","OBJECT_NAME":"STARLINK-3334","CENTER_NAME":"EARTH","COUNTRY_CODE":"US","OBJECT_TYPE":"PAYLOAD"},{"MEAN_MOTION_DOT":"0.00015541","EPOCH":"2022-01-31T08:58:01.220736","MEAN_ELEMENT_THEORY":"SGP4","INCLINATION":"53.2159","ECCENTRICITY":"0.00023070","MEAN_MOTION":"15.73208615","NORAD_CAT_ID":"50824","CENTER_NAME":"EARTH","OBJECT_NAME":"STARLINK-3340","OBJECT_TYPE":"PAYLOAD","COUNTRY_CODE":"US","ARG_OF_PERICENTER":"24.6346","OBJECT_ID":"2022-001X","REF_FRAME":"TEME","SITE":"AFETR","TLE_LINE2":"2 50824  53.2159  77.9063 0002307  24.6346 335.4784 15.73208615  3897","MEAN_ANOMALY":"335.4784","CLASSIFICATION_TYPE":"U","FILE":"3288447","ELEMENT_SET_NO":"999","REV_AT_EPOCH":"389","EPHEMERIS_TYPE":"0","TLE_LINE1":"1 50824U 22001X   22031.37362524  .00015541  00000-0  11490-3 0  9998","PERIAPSIS":"348.183","LAUNCH_DATE":"2022-01-06","SEMIMAJOR_AXIS":"6727.871","APOAPSIS":"351.288","BSTAR":"0.00011490000000","MEAN_MOTION_DDOT":"0.0000000000000","RA_OF_ASC_NODE":"77.9063","RCS_SIZE":"LARGE","DECAY_DATE":null,"GP_ID":"195022970","TIME_SYSTEM":"UTC","PERIOD":"91.533"},{"OBJECT_TYPE":"PAYLOAD","COUNTRY_CODE":"US","CENTER_NAME":"EARTH","OBJECT_NAME":"STARLINK-3332","NORAD_CAT_ID":"50825","MEAN_MOTION":"15.73191727","ECCENTRICITY":"0.00020840","EPOCH":"2022-01-31T12:01:18.501312","MEAN_ELEMENT_THEORY":"SGP4","INCLINATION":"53.2144","MEAN_MOTION_DOT":"0.00019104","ELEMENT_SET_NO":"999","CLASSIFICATION_TYPE":"U","FILE":"3288447","MEAN_ANOMALY":"325.8701","SITE":"AFETR","TLE_LINE2":"2 50825  53.2144  77.2789 0002084  34.2454 325.8701 15.73191727  3919","REF_FRAME":"TEME","ARG_OF_PERICENTER":"34.2454","OBJECT_ID":"2022-001Y","BSTAR":"0.00014027000000","APOAPSIS":"351.186","SEMIMAJOR_AXIS":"6727.919","LAUNCH_DATE":"2022-01-06","PERIAPSIS":"348.382","EPHEMERIS_TYPE":"0","TLE_LINE1":"1 50825U 22001Y   22031.50090858  .00019104  00000-0  14027-3 0  9990","REV_AT_EPOCH":"391","TIME_SYSTEM":"UTC","PERIOD":"91.534","GP_ID":"195022066","DECAY_DATE":null,"RCS_SIZE":"LARGE","RA_OF_ASC_NODE":"77.2789","MEAN_MOTION_DDOT":"0.0000000000000"},{"MEAN_MOTION_DOT":"0.00049897","EPOCH":"2022-01-31T15:03:17.830080","INCLINATION":"53.2138","MEAN_ELEMENT_THEORY":"SGP4","ECCENTRICITY":"0.00021230","MEAN_MOTION":"15.73221365","NORAD_CAT_ID":"50826","CENTER_NAME":"EARTH","OBJECT_NAME":"STARLINK-3337","OBJECT_TYPE":"PAYLOAD","COUNTRY_CODE":"US","ARG_OF_PERICENTER":"23.8316","OBJECT_ID":"2022-001Z","REF_FRAME":"TEME","SITE":"AFETR","TLE_LINE2":"2 50826  53.2138  76.6438 0002123  23.8316 336.2802 15.73221365  3934","MEAN_ANOMALY":"336.2802","CLASSIFICATION_TYPE":"U","FILE":"3288814","ELEMENT_SET_NO":"999","REV_AT_EPOCH":"393","EPHEMERIS_TYPE":"0","TLE_LINE1":"1 50826U 22001Z   22031.62728970  .00049897  00000-0  35748-3 0  9992","PERIAPSIS":"348.271","LAUNCH_DATE":"2022-01-06","SEMIMAJOR_AXIS":"6727.834","APOAPSIS":"351.128","BSTAR":"0.00035748000000","MEAN_MOTION_DDOT":"0.0000000000000","RA_OF_ASC_NODE":"76.6438","RCS_SIZE":"LARGE","DECAY_DATE":null,"GP_ID":"195056754","TIME_SYSTEM":"UTC","PERIOD":"91.532"},{"ARG_OF_PERICENTER":"42.6308","OBJECT_ID":"2022-001AA","REF_FRAME":"TEME","SITE":"AFETR","TLE_LINE2":"2 50827  53.2141  76.6508 0002421  42.6308 317.4900 15.73222398  3935","MEAN_ANOMALY":"317.4900","CLASSIFICATION_TYPE":"U","FILE":"3288814","ELEMENT_SET_NO":"999","MEAN_MOTION_DOT":"0.00033289","EPOCH":"2022-01-31T15:04:44.818464","MEAN_ELEMENT_THEORY":"SGP4","INCLINATION":"53.2141","ECCENTRICITY":"0.00024210","MEAN_MOTION":"15.73222398","NORAD_CAT_ID":"50827","CENTER_NAME":"EARTH","OBJECT_NAME":"STARLINK-3329","OBJECT_TYPE":"PAYLOAD","COUNTRY_CODE":"US","MEAN_MOTION_DDOT":"0.0000000000000","RA_OF_ASC_NODE":"76.6508","RCS_SIZE":"LARGE","DECAY_DATE":null,"GP_ID":"195056989","TIME_SYSTEM":"UTC","PERIOD":"91.532","REV_AT_EPOCH":"393","EPHEMERIS_TYPE":"0","TLE_LINE1":"1 50827U 22001AA  22031.62829651  .00033289  00000-0  24042-3 0  9994","PERIAPSIS":"348.068","LAUNCH_DATE":"2022-01-06","SEMIMAJOR_AXIS":"6727.831","APOAPSIS":"351.325","BSTAR":"0.00024042000000"},{"APOAPSIS":"350.562","BSTAR":"0.00031527000000","SEMIMAJOR_AXIS":"6727.853","PERIAPSIS":"348.874","LAUNCH_DATE":"2022-01-06","REV_AT_EPOCH":"393","TLE_LINE1":"1 50828U 22001AB  22031.62706041  .00043885  00000-0  31527-3 0  9991","EPHEMERIS_TYPE":"0","PERIOD":"91.532","TIME_SYSTEM":"UTC","GP_ID":"195056522","DECAY_DATE":null,"RCS_SIZE":"LARGE","MEAN_MOTION_DDOT":"0.0000000000000","RA_OF_ASC_NODE":"76.6411","COUNTRY_CODE":"US","OBJECT_TYPE":"PAYLOAD","NORAD_CAT_ID":"50828","OBJECT_NAME":"STARLINK-3290","CENTER_NAME":"EARTH","ECCENTRICITY":"0.00012540","MEAN_MOTION":"15.73214811","MEAN_MOTION_DOT":"0.00043885","MEAN_ELEMENT_THEORY":"SGP4","INCLINATION":"53.2154","EPOCH":"2022-01-31T15:02:58.019424","FILE":"3288814","CLASSIFICATION_TYPE":"U","ELEMENT_SET_NO":"999","MEAN_ANOMALY":"314.0366","REF_FRAME":"TEME","TLE_LINE2":"2 50828  53.2154  76.6411 0001254  46.0757 314.0366 15.73214811  3932","SITE":"AFETR","OBJECT_ID":"2022-001AB","ARG_OF_PERICENTER":"46.0757"},{"ELEMENT_SET_NO":"999","FILE":"3288814","CLASSIFICATION_TYPE":"U","MEAN_ANOMALY":"328.1815","TLE_LINE2":"2 50829  53.2140  76.6547 0002797  31.9374 328.1815 15.73220728  3938","SITE":"AFETR","REF_FRAME":"TEME","OBJECT_ID":"2022-001AC","ARG_OF_PERICENTER":"31.9374","COUNTRY_CODE":"US","OBJECT_TYPE":"PAYLOAD","OBJECT_NAME":"STARLINK-3294","CENTER_NAME":"EARTH","NORAD_CAT_ID":"50829","MEAN_MOTION":"15.73220728","ECCENTRICITY":"0.00027970","INCLINATION":"53.2140","MEAN_ELEMENT_THEORY":"SGP4","EPOCH":"2022-01-31T15:05:03.500736","MEAN_MOTION_DOT":"0.00013855","TIME_SYSTEM":"UTC","PERIOD":"91.532","DECAY_DATE":null,"GP_ID":"195056600","RCS_SIZE":"LARGE","RA_OF_ASC_NODE":"76.6547","MEAN_MOTION_DDOT":"0.0000000000000","BSTAR":"0.00010288000000","APOAPSIS":"351.583","SEMIMAJOR_AXIS":"6727.836","LAUNCH_DATE":"2022-01-06","PERIAPSIS":"347.819","TLE_LINE1":"1 50829U 22001AC  22031.62851274  .00013855  00000-0  10288-3 0  9996","EPHEMERIS_TYPE":"0","REV_AT_EPOCH":"393"},{"MEAN_MOTION_DOT":"0.00023019","EPOCH":"2022-01-31T11:59:50.746560","INCLINATION":"53.2153","MEAN_ELEMENT_THEORY":"SGP4","ECCENTRICITY":"0.00016850","MEAN_MOTION":"15.73213986","NORAD_CAT_ID":"50830","CENTER_NAME":"EARTH","OBJECT_NAME":"STARLINK-3278","OBJECT_TYPE":"PAYLOAD","COUNTRY_CODE":"US","ARG_OF_PERICENTER":"57.5203","OBJECT_ID":"2022-001AD","REF_FRAME":"TEME","SITE":"AFETR","TLE_LINE2":"2 50830  53.2153  77.2700 0001685  57.5203 302.5980 15.73213986  3917","MEAN_ANOMALY":"302.5980","CLASSIFICATION_TYPE":"U","FILE":"3288447","ELEMENT_SET_NO":"999","REV_AT_EPOCH":"391","EPHEMERIS_TYPE":"0","TLE_LINE1":"1 50830U 22001AD  22031.49989290  .00023019  00000-0  16788-3 0  9997","PERIAPSIS":"348.587","LAUNCH_DATE":"2022-01-06","SEMIMAJOR_AXIS":"6727.855","APOAPSIS":"350.854","BSTAR":"0.00016788000000","MEAN_MOTION_DDOT":"0.0000000000000","RA_OF_ASC_NODE":"77.2700","RCS_SIZE":"LARGE","GP_ID":"195022818","DECAY_DATE":null,"PERIOD":"91.532","TIME_SYSTEM":"UTC"},{"LAUNCH_DATE":"2022-01-06","PERIAPSIS":"348.180","EPHEMERIS_TYPE":"0","TLE_LINE1":"1 50831U 22001AE  22031.62717198  .00037139  00000-0  26757-3 0  9994","REV_AT_EPOCH":"393","BSTAR":"0.00026757000000","APOAPSIS":"351.200","SEMIMAJOR_AXIS":"6727.825","RCS_SIZE":"LARGE","RA_OF_ASC_NODE":"76.6439","MEAN_MOTION_DDOT":"0.0000000000000","TIME_SYSTEM":"UTC","PERIOD":"91.532","DECAY_DATE":null,"GP_ID":"195056676","MEAN_MOTION":"15.73224556","ECCENTRICITY":"0.00022440","EPOCH":"2022-01-31T15:03:07.659072","INCLINATION":"53.2142","MEAN_ELEMENT_THEORY":"SGP4","MEAN_MOTION_DOT":"0.00037139","OBJECT_TYPE":"PAYLOAD","COUNTRY_CODE":"US","CENTER_NAME":"EARTH","OBJECT_NAME":"STARLINK-3299","NORAD_CAT_ID":"50831","SITE":"AFETR","TLE_LINE2":"2 50831  53.2142  76.6439 0002244  24.2125 335.9000 15.73224556  3934","REF_FRAME":"TEME","ARG_OF_PERICENTER":"24.2125","OBJECT_ID":"2022-001AE","ELEMENT_SET_NO":"999","CLASSIFICATION_TYPE":"U","FILE":"3288814","MEAN_ANOMALY":"335.9000"},{"TLE_LINE1":"1 50832U 22001AF  22031.49978086  .00026158  00000-0  19023-3 0  9992","EPHEMERIS_TYPE":"0","REV_AT_EPOCH":"391","LAUNCH_DATE":"2022-01-06","PERIAPSIS":"348.300","SEMIMAJOR_AXIS":"6727.903","BSTAR":"0.00019023000000","APOAPSIS":"351.237","RA_OF_ASC_NODE":"77.2695","MEAN_MOTION_DDOT":"0.0000000000000","RCS_SIZE":"LARGE","DECAY_DATE":null,"GP_ID":"195022971","PERIOD":"91.533","TIME_SYSTEM":"UTC","INCLINATION":"53.2161","MEAN_ELEMENT_THEORY":"SGP4","EPOCH":"2022-01-31T11:59:41.066304","MEAN_MOTION_DOT":"0.00026158","MEAN_MOTION":"15.73197088","ECCENTRICITY":"0.00021830","OBJECT_NAME":"STARLINK-3328","CENTER_NAME":"EARTH","NORAD_CAT_ID":"50832","COUNTRY_CODE":"US","OBJECT_TYPE":"PAYLOAD","OBJECT_ID":"2022-001AF","ARG_OF_PERICENTER":"26.0828","TLE_LINE2":"2 50832  53.2161  77.2695 0002183  26.0828 334.0302 15.73197088  3911","SITE":"AFETR","REF_FRAME":"TEME","MEAN_ANOMALY":"334.0302","ELEMENT_SET_NO":"999","FILE":"3288447","CLASSIFICATION_TYPE":"U"}];
